{"type": "FeatureCollection", "features": [ {"type": "Feature", "properties": {"norad_id": 66948, "name": "STARLINK-36116", "group": "last-30-days", "lat": -37.84914082447371, "lon": -25.24190704614734, "alt_km": 347.6805267684258, "timestamp": "2025-12-20T16:47:35.025705+00:00", "meta": {"OBJECT_NAME": "STARLINK-36116", "OBJECT_ID": "2025-286Z", "EPOCH": "2025-12-20T12:00:02.000160", "MEAN_MOTION": 15.76185114, "ECCENTRICITY": 0.000108, "INCLINATION": 53.1562, "RA_OF_ASC_NODE": 11.39, "ARG_OF_PERICENTER": 76.619, "MEAN_ANOMALY": 179.8626, "EPHEMERIS_TYPE": 0, "CLASSIFICATION_TYPE": "U", "NORAD_CAT_ID": 66948, "ELEMENT_SET_NO": 999, "REV_AT_EPOCH": 323, "BSTAR": -0.0097457, "MEAN_MOTION_DOT": -0.01384979, "MEAN_MOTION_DDOT": 0}, "tle": {"line1": "1 66948U 25286Z   25354.50002315 -.01384979  00000+0 -97457-2 0  9997", "line2": "2 66948  53.1562  11.3900 0001080  76.6190 179.8626 15.76185114  3235"}}, "geometry": {"type": "Point", "coordinates": [-25.24190704614734, -37.84914082447371]}}, {"type": "Feature", "properties": {"norad_id": 66949, "name": "STARLINK-36096", "group": "last-30-days", "lat": -35.23112111247235, "lon": -21.58733760342985, "alt_km": 347.80793021595946, "timestamp": "2025-12-20T16:47:35.025719+00:00", "meta": {"OBJECT_NAME": "STARLINK-36096", "OBJECT_ID": "2025-286AA", "EPOCH": "2025-12-20T12:00:02.000160", "MEAN_MOTION": 15.76144082, "ECCENTRICITY": 0.0001257, "INCLINATION": 53.1563, "RA_OF_ASC_NODE": 11.3821, "ARG_OF_PERICENTER": 81.8354, "MEAN_ANOMALY": 178.6283, "EPHEMERIS_TYPE": 0, "CLASSIFICATION_TYPE": "U", "NORAD_CAT_ID": 66949, "ELEMENT_SET_NO": 999, "REV_AT_EPOCH": 323, "BSTAR": -0.010112, "MEAN_MOTION_DOT": -0.01428839, "MEAN_MOTION_DDOT": 0}, "tle": {"line1": "1 66949U 25286AA  25354.50002315 -.01428839  00000+0 -10112-1 0  9994", "line2": "2 66949  53.1563  11.3821 0001257  81.8354 178.6283 15.76144082  3230"}}, "geometry": {"type": "Point", "coordinates": [-21.58733760342985, -35.23112111247235]}}, {"type": "Feature", "properties": {"norad_id": 66950, "name": "STARLINK-36111", "group": "last-30-days", "lat": -32.485598450009746, "lon": -18.138090641390146, "alt_km": 347.80260175123294, "timestamp": "2025-12-20T16:47:35.025729+00:00", "meta": {"OBJECT_NAME": "STARLINK-36111", "OBJECT_ID": "2025-286AB", "EPOCH": "2025-12-20T12:00:02.000160", "MEAN_MOTION": 15.76057869, "ECCENTRICITY": 0.0001405, "INCLINATION": 53.156, "RA_OF_ASC_NODE": 11.3737, "ARG_OF_PERICENTER": 84.507, "MEAN_ANOMALY": 179.9789, "EPHEMERIS_TYPE": 0, "CLASSIFICATION_TYPE": "U", "NORAD_CAT_ID": 66950, "ELEMENT_SET_NO": 999, "REV_AT_EPOCH": 323, "BSTAR": -0.0093277, "MEAN_MOTION_DOT": -0.01325357, "MEAN_MOTION_DDOT": 0}, "tle": {"line1": "1 66950U 25286AB  25354.50002315 -.01325357  00000+0 -93277-2 0  9991", "line2": "2 66950  53.1560  11.3737 0001405  84.5070 179.9789 15.76057869  3236"}}, "geometry": {"type": "Point", "coordinates": [-18.138090641390146, -32.485598450009746]}}, {"type": "Feature", "properties": {"norad_id": 66951, "name": "STARLINK-35999", "group": "last-30-days", "lat": -31.070555810659105, "lon": -16.48346315918011, "alt_km": 347.8294612982845, "timestamp": "2025-12-20T16:47:35.025739+00:00", "meta": {"OBJECT_NAME": "STARLINK-35999", "OBJECT_ID": "2025-286AC", "EPOCH": "2025-12-20T12:00:02.000160", "MEAN_MOTION": 15.76023912, "ECCENTRICITY": 0.0001155, "INCLINATION": 53.1565, "RA_OF_ASC_NODE": 11.3693, "ARG_OF_PERICENTER": 82.4431, "MEAN_ANOMALY": 184.0866, "EPHEMERIS_TYPE": 0, "CLASSIFICATION_TYPE": "U", "NORAD_CAT_ID": 66951, "ELEMENT_SET_NO": 999, "REV_AT_EPOCH": 323, "BSTAR": -0.010285, "MEAN_MOTION_DOT": -0.01443503, "MEAN_MOTION_DDOT": 0}, "tle": {"line1": "1 66951U 25286AC  25354.50002315 -.01443503  00000+0 -10285-1 0  9993", "line2": "2 66951  53.1565  11.3693 0001155  82.4431 184.0866 15.76023912  3238"}}, "geometry": {"type": "Point", "coordinates": [-16.48346315918011, -31.070555810659105]}}, {"type": "Feature", "properties": {"norad_id": 66952, "name": "STARLINK-36122", "group": "last-30-days", "lat": -33.86373610073649, "lon": -19.826394379068333, "alt_km": 347.6265216001693, "timestamp": "2025-12-20T16:47:35.025749+00:00", "meta": {"OBJECT_NAME": "STARLINK-36122", "OBJECT_ID": "2025-286AD", "EPOCH": "2025-12-20T12:00:02.000160", "MEAN_MOTION": 15.76097933, "ECCENTRICITY": 0.0001252, "INCLINATION": 53.156, "RA_OF_ASC_NODE": 11.3782, "ARG_OF_PERICENTER": 74.367, "MEAN_ANOMALY": 188.1125, "EPHEMERIS_TYPE": 0, "CLASSIFICATION_TYPE": "U", "NORAD_CAT_ID": 66952, "ELEMENT_SET_NO": 999, "REV_AT_EPOCH": 323, "BSTAR": -0.0093849, "MEAN_MOTION_DOT": -0.01334658, "MEAN_MOTION_DDOT": 0}, "tle": {"line1": "1 66952U 25286AD  25354.50002315 -.01334658  00000+0 -93849-2 0  9992", "line2": "2 66952  53.1560  11.3782 0001252  74.3670 188.1125 15.76097933  3233"}}, "geometry": {"type": "Point", "coordinates": [-19.826394379068333, -33.86373610073649]}}, {"type": "Feature", "properties": {"norad_id": 66953, "name": "HULIANWANG DIGUI-114", "group": "last-30-days", "lat": 47.73824033419517, "lon": 159.3889448706722, "alt_km": 1000.5539822213495, "timestamp": "2025-12-20T16:47:35.025760+00:00", "meta": {"OBJECT_NAME": "HULIANWANG DIGUI-114", "OBJECT_ID": "2025-287A", "EPOCH": "2025-12-18T14:58:33.375360", "MEAN_MOTION": 13.67416524, "ECCENTRICITY": 0.00087038, "INCLINATION": 86.4968, "RA_OF_ASC_NODE": 344.0089, "ARG_OF_PERICENTER": 188.5983, "MEAN_ANOMALY": 171.5028, "EPHEMERIS_TYPE": 0, "CLASSIFICATION_TYPE": "U", "NORAD_CAT_ID": 66953, "ELEMENT_SET_NO": 999, "REV_AT_EPOCH": 133, "BSTAR": 1.0869035e-05, "MEAN_MOTION_DOT": 2.6e-07, "MEAN_MOTION_DDOT": 0}, "tle": {"line1": "1 66953U 25287A   25352.62399740  .00000026  00000+0  10869-4 0  9995", "line2": "2 66953  86.4968 344.0089 0008703 188.5983 171.5028 13.67416524  1330"}}, "geometry": {"type": "Point", "coordinates": [159.3889448706722, 47.73824033419517]}}, {"type": "Feature", "properties": {"norad_id": 66954, "name": "HULIANWANG DIGUI-115", "group": "last-30-days", "lat": 43.23547324583312, "lon": 159.95795049575173, "alt_km": 1000.1539728158714, "timestamp": "2025-12-20T16:47:35.025772+00:00", "meta": {"OBJECT_NAME": "HULIANWANG DIGUI-115", "OBJECT_ID": "2025-287B", "EPOCH": "2025-12-18T14:57:30.566880", "MEAN_MOTION": 13.67541232, "ECCENTRICITY": 0.00089471, "INCLINATION": 86.4978, "RA_OF_ASC_NODE": 344.0137, "ARG_OF_PERICENTER": 187.4507, "MEAN_ANOMALY": 172.652, "EPHEMERIS_TYPE": 0, "CLASSIFICATION_TYPE": "U", "NORAD_CAT_ID": 66954, "ELEMENT_SET_NO": 999, "REV_AT_EPOCH": 133, "BSTAR": 1.0944943e-05, "MEAN_MOTION_DOT": 2.6e-07, "MEAN_MOTION_DDOT": 0}, "tle": {"line1": "1 66954U 25287B   25352.62327045  .00000026  00000+0  10945-4 0  9990", "line2": "2 66954  86.4978 344.0137 0008947 187.4507 172.6520 13.67541232  1330"}}, "geometry": {"type": "Point", "coordinates": [159.95795049575173, 43.23547324583312]}}, {"type": "Feature", "properties": {"norad_id": 66955, "name": "HULIANWANG DIGUI-116", "group": "last-30-days", "lat": 38.415165557779375, "lon": 160.4563463015698, "alt_km": 999.9134838483124, "timestamp": "2025-12-20T16:47:35.025783+00:00", "meta": {"OBJECT_NAME": "HULIANWANG DIGUI-116", "OBJECT_ID": "2025-287C", "EPOCH": "2025-12-18T14:56:21.725088", "MEAN_MOTION": 13.67658665, "ECCENTRICITY": 0.00085044, "INCLINATION": 86.4902, "RA_OF_ASC_NODE": 344.003, "ARG_OF_PERICENTER": 181.1085, "MEAN_ANOMALY": 179.0056, "EPHEMERIS_TYPE": 0, "CLASSIFICATION_TYPE": "U", "NORAD_CAT_ID": 66955, "ELEMENT_SET_NO": 999, "REV_AT_EPOCH": 133, "BSTAR": 0.00014472334, "MEAN_MOTION_DOT": 1.39e-06, "MEAN_MOTION_DDOT": 0}, "tle": {"line1": "1 66955U 25287C   25352.62247367  .00000139  00000+0  14472-3 0  9992", "line2": "2 66955  86.4902 344.0030 0008504 181.1085 179.0056 13.67658665  1335"}}, "geometry": {"type": "Point", "coordinates": [160.4563463015698, 38.415165557779375]}}, {"type": "Feature", "properties": {"norad_id": 66956, "name": "HULIANWANG DIGUI-117", "group": "last-30-days", "lat": 33.59918064868959, "lon": 160.92441073990392, "alt_km": 1000.3135328770068, "timestamp": "2025-12-20T16:47:35.025793+00:00", "meta": {"OBJECT_NAME": "HULIANWANG DIGUI-117", "OBJECT_ID": "2025-287D", "EPOCH": "2025-12-18T14:55:12.079776", "MEAN_MOTION": 13.67770338, "ECCENTRICITY": 0.00076767, "INCLINATION": 86.4971, "RA_OF_ASC_NODE": 344.0126, "ARG_OF_PERICENTER": 176.3616, "MEAN_ANOMALY": 183.76, "EPHEMERIS_TYPE": 0, "CLASSIFICATION_TYPE": "U", "NORAD_CAT_ID": 66956, "ELEMENT_SET_NO": 999, "REV_AT_EPOCH": 133, "BSTAR": 1.0922436e-05, "MEAN_MOTION_DOT": 2.6e-07, "MEAN_MOTION_DDOT": 0}, "tle": {"line1": "1 66956U 25287D   25352.62166759  .00000026  00000+0  10922-4 0  9990", "line2": "2 66956  86.4971 344.0126 0007676 176.3616 183.7600 13.67770338  1332"}}, "geometry": {"type": "Point", "coordinates": [160.92441073990392, 33.59918064868959]}}, {"type": "Feature", "properties": {"norad_id": 66957, "name": "HULIANWANG DIGUI-118", "group": "last-30-days", "lat": 28.709923698877333, "lon": 161.32977525222142, "alt_km": 1000.7527450537418, "timestamp": "2025-12-20T16:47:35.025823+00:00", "meta": {"OBJECT_NAME": "HULIANWANG DIGUI-118", "OBJECT_ID": "2025-287E", "EPOCH": "2025-12-19T17:14:01.622976", "MEAN_MOTION": 13.67870424, "ECCENTRICITY": 0.00073636, "INCLINATION": 86.4967, "RA_OF_ASC_NODE": 343.6097, "ARG_OF_PERICENTER": 172.7883, "MEAN_ANOMALY": 187.3383, "EPHEMERIS_TYPE": 0, "CLASSIFICATION_TYPE": "U", "NORAD_CAT_ID": 66957, "ELEMENT_SET_NO": 999, "REV_AT_EPOCH": 148, "BSTAR": 0.00013028429, "MEAN_MOTION_DOT": 1.27e-06, "MEAN_MOTION_DDOT": 0}, "tle": {"line1": "1 66957U 25287E   25353.71807434  .00000127  00000+0  13028-3 0  9995", "line2": "2 66957  86.4967 343.6097 0007363 172.7883 187.3383 13.67870424  1480"}}, "geometry": {"type": "Point", "coordinates": [161.32977525222142, 28.709923698877333]}}]}